ONEWEB-0128             
1 47274U 20100S   25333.13712830  .00000172  00000+0  44159-3 0  9993
2 47274  87.8944  30.4418 0002017  95.1776 264.9582 13.12444302238509
ONEWEB-0129             
1 47275U 20100T   25333.19226605 -.00000433  00000+0 -12383-2 0  9995
2 47275  87.8961  30.3834 0001552  59.5126 300.6156 13.12443486238446
ONEWEB-0130             
1 47276U 20100U   25333.21985844  .00000315  00000+0  84046-3 0  9999
2 47276  87.8958  30.3726 0001867  97.9009 262.2332 13.12443863238413
ONEWEB-0131             
1 47277U 20100V   25333.14037696  .00000211  00000+0  55057-3 0  9990
2 47277  87.8958  30.4188 0001838  99.3121 260.8215 13.12443745238442
ONEWEB-0132             
1 47278U 20100W   25333.16957135  .00000202  00000+0  52496-3 0  9996
2 47278  87.8961  30.4150 0001776  98.6614 261.4716 13.12441847238349
ONEWEB-0133             
1 47279U 20100X   25333.18564684 -.00000337  00000+0 -97263-3 0  9994
2 47279  87.8954  30.3743 0001935  99.3203 260.8145 13.12443349238504
ONEWEB-0134             
1 47280U 20100Y   25333.15497859  .00000465  00000+0  12582-2 0  9992
2 47280  87.8956  30.3745 0001940  92.3121 267.8230 13.12443141238476
ONEWEB-0135             
1 47281U 20100Z   25333.20199049 -.00000325  00000+0 -93768-3 0  9992
2 47281  87.8958  30.4051 0002113  92.4746 267.6624 13.12441783238506
